{
  "type": "FeatureCollection",
  "features": [
    {
      "type": "Feature",
      "properties": {
        "norad_id": 30306,
        "name": "FENGYUN 1C DEB",
        "group": "fengyun-1c-debris",
        "lat": -49.327688841265676,
        "lon": 32.690949941739426,
        "alt_km": 767.302105475308,
        "timestamp": "2025-12-07T09:35:10.065744+00:00",
        "meta_object_name": "FENGYUN 1C DEB",
        "meta_object_id": "1999-025ZT",
        "meta_epoch": "2025-12-06T01:52:09.093792",
        "meta_mean_motion": 14.28153257,
        "meta_eccentricity": 0.01136807,
        "meta_inclination": 98.5868,
        "meta_ra_of_asc_node": 21.2637,
        "meta_arg_of_pericenter": 17.149,
        "meta_mean_anomaly": 343.3483,
        "meta_ephemeris_type": 0,
        "meta_classification_type": "U",
        "meta_norad_cat_id": 30306,
        "meta_element_set_no": 999,
        "meta_rev_at_epoch": 97586,
        "meta_bstar": 0.0017345146,
        "meta_mean_motion_dot": 4.583e-05,
        "meta_mean_motion_ddot": 0,
        "tle_line1": "1 30306U 99025ZT  25340.07788303  .00004583  00000+0  17345-2 0  9998",
        "tle_line2": "2 30306  98.5868  21.2637 0113680  17.1490 343.3483 14.28153257975861"
      },
      "geometry": {
        "type": "Point",
        "coordinates": [
          32.690949941739426,
          -49.327688841265676
        ]
      }
    },
    {
      "type": "Feature",
      "properties": {
        "norad_id": 30309,
        "name": "FENGYUN 1C DEB",
        "group": "fengyun-1c-debris",
        "lat": 20.081941951124197,
        "lon": -138.01533544431234,
        "alt_km": 869.4103282810602,
        "timestamp": "2025-12-07T09:35:10.065754+00:00",
        "meta_object_name": "FENGYUN 1C DEB",
        "meta_object_id": "1999-025ZW",
        "meta_epoch": "2025-12-06T15:35:05.640576",
        "meta_mean_motion": 13.93511805,
        "meta_eccentricity": 0.0093166,
        "meta_inclination": 99.2269,
        "meta_ra_of_asc_node": 37.8297,
        "meta_arg_of_pericenter": 208.3621,
        "meta_mean_anomaly": 151.245,
        "meta_ephemeris_type": 0,
        "meta_classification_type": "U",
        "meta_norad_cat_id": 30309,
        "meta_element_set_no": 999,
        "meta_rev_at_epoch": 95948,
        "meta_bstar": 0.00057492976,
        "meta_mean_motion_dot": 7.36e-06,
        "meta_mean_motion_ddot": 0,
        "tle_line1": "1 30309U 99025ZW  25340.64937084  .00000736  00000+0  57493-3 0  9991",
        "tle_line2": "2 30309  99.2269  37.8297 0093166 208.3621 151.2450 13.93511805959486"
      },
      "geometry": {
        "type": "Point",
        "coordinates": [
          -138.01533544431234,
          20.081941951124197
        ]
      }
    },
    {
      "type": "Feature",
      "properties": {
        "norad_id": 30310,
        "name": "FENGYUN 1C DEB",
        "group": "fengyun-1c-debris",
        "lat": 22.799380391926,
        "lon": -175.0831833386281,
        "alt_km": 1004.7437276547698,
        "timestamp": "2025-12-07T09:35:10.065765+00:00",
        "meta_object_name": "FENGYUN 1C DEB",
        "meta_object_id": "1999-025ZX",
        "meta_epoch": "2025-12-06T19:12:51.860736",
        "meta_mean_motion": 14.08359994,
        "meta_eccentricity": 0.02412402,
        "meta_inclination": 98.6647,
        "meta_ra_of_asc_node": 0.666,
        "meta_arg_of_pericenter": 14.3447,
        "meta_mean_anomaly": 346.4417,
        "meta_ephemeris_type": 0,
        "meta_classification_type": "U",
        "meta_norad_cat_id": 30310,
        "meta_element_set_no": 999,
        "meta_rev_at_epoch": 96648,
        "meta_bstar": 0.0011758878,
        "meta_mean_motion_dot": 2.587e-05,
        "meta_mean_motion_ddot": 0,
        "tle_line1": "1 30310U 99025ZX  25340.80060024  .00002587  00000+0  11759-2 0  9992",
        "tle_line2": "2 30310  98.6647   0.6660 0241240  14.3447 346.4417 14.08359994966487"
      },
      "geometry": {
        "type": "Point",
        "coordinates": [
          -175.0831833386281,
          22.799380391926
        ]
      }
    },
    {
      "type": "Feature",
      "properties": {
        "norad_id": 30311,
        "name": "FENGYUN 1C DEB",
        "group": "fengyun-1c-debris",
        "lat": -39.893371706122856,
        "lon": -110.44886666995413,
        "alt_km": 858.0160331028001,
        "timestamp": "2025-12-07T09:35:10.065775+00:00",
        "meta_object_name": "FENGYUN 1C DEB",
        "meta_object_id": "1999-025ZY",
        "meta_epoch": "2025-12-06T16:49:53.225472",
        "meta_mean_motion": 13.77879816,
        "meta_eccentricity": 0.01650815,
        "meta_inclination": 99.1399,
        "meta_ra_of_asc_node": 76.613,
        "meta_arg_of_pericenter": 212.981,
        "meta_mean_anomaly": 146.0959,
        "meta_ephemeris_type": 0,
        "meta_classification_type": "U",
        "meta_norad_cat_id": 30311,
        "meta_element_set_no": 999,
        "meta_rev_at_epoch": 94877,
        "meta_bstar": 0.00078174524,
        "meta_mean_motion_dot": 8.24e-06,
        "meta_mean_motion_ddot": 0,
        "tle_line1": "1 30311U 99025ZY  25340.70131048  .00000824  00000+0  78175-3 0  9995",
        "tle_line2": "2 30311  99.1399  76.6130 0165081 212.9810 146.0959 13.77879816948773"
      },
      "geometry": {
        "type": "Point",
        "coordinates": [
          -110.44886666995413,
          -39.893371706122856
        ]
      }
    },
    {
      "type": "Feature",
      "properties": {
        "norad_id": 30312,
        "name": "FENGYUN 1C DEB",
        "group": "fengyun-1c-debris",
        "lat": 80.86234509082875,
        "lon": -43.523644228024,
        "alt_km": 737.7232097528595,
        "timestamp": "2025-12-07T09:35:10.065786+00:00",
        "meta_object_name": "FENGYUN 1C DEB",
        "meta_object_id": "1999-025ZZ",
        "meta_epoch": "2025-12-06T21:48:41.024160",
        "meta_mean_motion": 14.45672882,
        "meta_eccentricity": 0.00116882,
        "meta_inclination": 98.8665,
        "meta_ra_of_asc_node": 59.9222,
        "meta_arg_of_pericenter": 224.2083,
        "meta_mean_anomaly": 196.1772,
        "meta_ephemeris_type": 0,
        "meta_classification_type": "U",
        "meta_norad_cat_id": 30312,
        "meta_element_set_no": 999,
        "meta_rev_at_epoch": 97836,
        "meta_bstar": 0.0039865962,
        "meta_mean_motion_dot": 0.00014097,
        "meta_mean_motion_ddot": 0,
        "tle_line1": "1 30312U 99025ZZ  25340.90880815  .00014097  00000+0  39866-2 0  9991",
        "tle_line2": "2 30312  98.8665  59.9222 0011688 224.2083 196.1772 14.45672882978360"
      },
      "geometry": {
        "type": "Point",
        "coordinates": [
          -43.523644228024,
          80.86234509082875
        ]
      }
    },
    {
      "type": "Feature",
      "properties": {
        "norad_id": 30313,
        "name": "FENGYUN 1C DEB",
        "group": "fengyun-1c-debris",
        "lat": -26.655145210296627,
        "lon": -116.99302768731518,
        "alt_km": 845.9203490192986,
        "timestamp": "2025-12-07T09:35:10.065796+00:00",
        "meta_object_name": "FENGYUN 1C DEB",
        "meta_object_id": "1999-025AAA",
        "meta_epoch": "2025-12-06T21:07:41.059776",
        "meta_mean_motion": 14.25385773,
        "meta_eccentricity": 0.00562694,
        "meta_inclination": 98.8758,
        "meta_ra_of_asc_node": 66.9807,
        "meta_arg_of_pericenter": 353.4924,
        "meta_mean_anomaly": 71.6373,
        "meta_ephemeris_type": 0,
        "meta_classification_type": "U",
        "meta_norad_cat_id": 30313,
        "meta_element_set_no": 999,
        "meta_rev_at_epoch": 97006,
        "meta_bstar": 0.002629483,
        "meta_mean_motion_dot": 6.263e-05,
        "meta_mean_motion_ddot": 0,
        "tle_line1": "1 30313U 99025AAA 25340.88033634  .00006263  00000+0  26295-2 0  9996",
        "tle_line2": "2 30313  98.8758  66.9807 0056269 353.4924  71.6373 14.25385773970065"
      },
      "geometry": {
        "type": "Point",
        "coordinates": [
          -116.99302768731518,
          -26.655145210296627
        ]
      }
    },
    {
      "type": "Feature",
      "properties": {
        "norad_id": 30314,
        "name": "FENGYUN 1C DEB",
        "group": "fengyun-1c-debris",
        "lat": -24.88884946709519,
        "lon": 176.62074341956173,
        "alt_km": 813.1120527094345,
        "timestamp": "2025-12-07T09:35:10.065806+00:00",
        "meta_object_name": "FENGYUN 1C DEB",
        "meta_object_id": "1999-025AAB",
        "meta_epoch": "2025-12-05T11:25:49.544832",
        "meta_mean_motion": 14.01155189,
        "meta_eccentricity": 0.01425643,
        "meta_inclination": 98.3813,
        "meta_ra_of_asc_node": 170.9323,
        "meta_arg_of_pericenter": 18.3994,
        "meta_mean_anomaly": 342.2256,
        "meta_ephemeris_type": 0,
        "meta_classification_type": "U",
        "meta_norad_cat_id": 30314,
        "meta_element_set_no": 999,
        "meta_rev_at_epoch": 96007,
        "meta_bstar": 0.001626767,
        "meta_mean_motion_dot": 2.631e-05,
        "meta_mean_motion_ddot": 0,
        "tle_line1": "1 30314U 99025AAB 25339.47626788  .00002631  00000+0  16268-2 0  9992",
        "tle_line2": "2 30314  98.3813 170.9323 0142564  18.3994 342.2256 14.01155189960077"
      },
      "geometry": {
        "type": "Point",
        "coordinates": [
          176.62074341956173,
          -24.88884946709519
        ]
      }
    }
  ]
}